[{"OBJECT_NAME":"OBJECT A","OBJECT_ID":"2022-023A","EPOCH":"2026-03-07T09:13:29.633664","MEAN_MOTION":15.18202647,"ECCENTRICITY":0.00985337,"INCLINATION":63.4765,"RA_OF_ASC_NODE":256.024,"ARG_OF_PERICENTER":341.4326,"MEAN_ANOMALY":18.3199,"EPHEMERIS_TYPE":0,"CLASSIFICATION_TYPE":"U","NORAD_CAT_ID":51946,"ELEMENT_SET_NO":999,"REV_AT_EPOCH":22226,"BSTAR":0.00019500419,"MEAN_MOTION_DOT":4.303e-5,"MEAN_MOTION_DDOT":0},{"OBJECT_NAME":"STARLINK-30857","OBJECT_ID":"2023-200G","EPOCH":"2026-03-09T22:00:01.999584","MEAN_MOTION":15.26753139,"ECCENTRICITY":0.00014514,"INCLINATION":42.9994,"RA_OF_ASC_NODE":167.4601,"ARG_OF_PERICENTER":261.2918,"MEAN_ANOMALY":215.2192,"EPHEMERIS_TYPE":0,"CLASSIFICATION_TYPE":"U","NORAD_CAT_ID":58595,"ELEMENT_SET_NO":999,"REV_AT_EPOCH":578,"BSTAR":-0.000411341,"MEAN_MOTION_DOT":-0.00011281,"MEAN_MOTION_DDOT":0}]
